IRIDIUM 171             
1 43929U 19002H   24186.05730132 -.00000080  00000+0 -35564-4 0  9997
2 43929  86.3992 291.8139 0001854 111.4449 248.6945 14.34215001286747
IRIDIUM 170             
1 43930U 19002J   24185.84406312  .00001693  00000+0  26441-3 0  9997
2 43930  86.6095 291.7225 0002318  93.8855 266.2627 14.72266566294309
IRIDIUM 167             
1 43931U 19002K   24186.53933457  .00000412  00000+0  14007-3 0  9993
2 43931  86.3968 291.4036 0002291  94.7120 265.4337 14.34219672286818
IRIDIUM 181             
1 56726U 23068S   24186.15896999  .00000566  00000+0  16147-3 0  9990
2 56726  86.8645 346.1199 0002480  92.6838 267.4648 14.43580485 59584
IRIDIUM 177             
1 56727U 23068T   24186.12562883  .00001617  00000+0  20947-3 0  9991
2 56727  86.1979 307.3168 0002499  85.8643 274.2864 14.80201549 60884
IRIDIUM 174             
1 56728U 23068U   24186.18779676  .00002664  00000+0  34739-3 0  9995
2 56728  86.1985 307.3922 0002335  93.1518 266.9971 14.80202890 60890
IRIDIUM 178             
1 56729U 23068V   24185.91194128  .00002200  00000+0  28626-3 0  9993
2 56729  86.5790 325.7810 0002269 100.2652 259.8825 14.80200182 60851
IRIDIUM 179             
1 56730U 23068W   24186.51491600  .00001993  00000+0  25906-3 0  9993
2 56730  86.6801 329.8762 0002772 102.8732 257.2799 14.80199479 60942
